GORIZONT 1              
1 11158U 78118A   24151.58639280  .00000064  00000+0  00000+0 0  9993
2 11158  11.4416 178.0976 3258441 320.3205  19.8932  1.00243159115447
GORIZONT 2              
1 11440U 79062A   24152.81976378  .00000014  00000+0  00000+0 0  9990
2 11440   7.5748 293.7286 0001617 315.1477 359.9311  1.00247975130531
GORIZONT 3              
1 11648U 79105A   24152.51507459  .00000138  00000+0  00000+0 0  9992
2 11648   7.7495 295.3469 0012303 233.7469 307.2768  1.00248566114994
GORIZONT 4              
1 11841U 80049A   24152.42242330  .00000034  00000+0  00000+0 0  9995
2 11841   8.9485 301.8385 0000437  20.9269 144.5216  0.98627789226156
GORIZONT 5              
1 13092U 82020A   24153.46034047  .00000011  00000+0  00000+0 0  9990
2 13092  10.0157 307.3823 0033271 231.8262 124.7243  0.98530812114237
GORIZONT 6              
1 13624U 82103A   24152.76086366 -.00000232  00000+0  00000+0 0  9992
2 13624   8.9694 307.6309 0000404 208.0349 337.4639  1.00274196113466
GORIZONT 7              
1 14160U 83066A   24152.79484506 -.00000221  00000+0  00000+0 0  9996
2 14160  10.7771 317.6375 0010123 330.1251  28.8630  0.98349894147408
GORIZONT 8              
1 14532U 83118A   24152.66451947 -.00000114  00000+0  00000+0 0  9997
2 14532  10.9898 319.6069 0029582 165.8473 207.7122  0.98270751113179
GORIZONT 9              
1 14940U 84041A   24153.43019868 -.00000302  00000+0  00000+0 0  9993
2 14940  10.1657 317.4592 0004636 236.9566 307.7424  1.00274893114543
GORIZONT 10             
1 15144U 84078A   24153.32966008 -.00000296  00000+0  00000+0 0  9997
2 15144  10.2832 318.4895 0000424 241.8725 121.2566  1.00324903147131
GORIZONT 11             
1 15484U 85007A   24152.79597475  .00000026  00000+0  00000+0 0  9995
2 15484  10.5005 320.5794 0003943 178.5044  99.4371  1.00153406145141
GORIZONT 12             
1 16769U 86044A   24153.45398413 -.00000365  00000+0  00000+0 0  9996
2 16769  11.2447 326.1047 0001562 248.3012 307.9258  1.00254958139794
GORIZONT 13             
1 17083U 86090A   24152.69941556 -.00000129  00000+0  00000+0 0  9992
2 17083  13.2676 333.6082 0012953 352.6925 194.9491  0.96726966111420
GORIZONT 14             
1 17969U 87040A   24153.44633137 -.00000080  00000+0  00000+0 0  9994
2 17969  12.0006 324.7027 0031006 190.3653 357.3058  0.97658429112561
GORIZONT 15             
1 19017U 88028A   24153.46399543 -.00000058  00000+0  00000+0 0  9994
2 19017  13.6382 336.2103 0037348 173.3895 174.2841  0.97826576112193
GORIZONT 16             
1 19397U 88071A   24153.32966008 -.00000300  00000+0  00000+0 0  9994
2 19397  12.4749 334.8887 0013795  80.7001 270.2483  0.99981956130770
GORIZONT 17             
1 19765U 89004A   24152.09882767  .00000045  00000+0  00000+0 0  9997
2 19765  13.1071 338.3538 0023005 149.5732  35.3786  0.99064506128177
GORIZONT 18             
1 20107U 89052A   24152.90105692 -.00000277  00000+0  00000+0 0  9995
2 20107  13.1877 339.5671 0033765 331.8488 217.9861  0.99402989126993
GORIZONT 19             
1 20263U 89081A   24153.13297769  .00000118  00000+0  00000+0 0  9996
2 20263  12.8968 338.6743 0003819 220.3271 140.3344  1.00230610127014
GORIZONT 20             
1 20659U 90054A   24153.49932663 -.00000210  00000+0  00000+0 0  9999
2 20659  13.4140 341.4156 0006933 194.0781 338.9128  1.00317959124200
GORIZONT 21             
1 20923U 90094A   24152.69871937  .00000079  00000+0  00000+0 0  9996
2 20923  13.4480 342.1633 0005499 217.1504 317.7890  1.00331710122968
GORIZONT 22             
1 20953U 90102A   24152.76721632 -.00000021  00000+0  00000+0 0  9991
2 20953  13.4182 342.5956 0001756  16.8079 168.2962  1.00263094122884
GORIZONT 23             
1 21533U 91046A   24152.63445512  .00000030  00000+0  00000+0 0  9999
2 21533  14.2946 346.8177 0003918 316.8355 226.8909  0.98907148 39307
GORIZONT 24             
1 21759U 91074A   24153.43672538 -.00000203  00000+0  00000+0 0  9992
2 21759  14.5057 348.7956 0019293 241.0128 307.7893  0.98444790117698
GORIZONT 25             
1 21922U 92017A   24152.60283963 -.00000357  00000+0  00000+0 0  9990
2 21922  14.0328 348.0050 0028132  99.9564 138.1741  0.99851791117478
GORIZONT 26             
1 22041U 92043A   24152.26824266 -.00000122  00000+0  00000+0 0  9991
2 22041  14.2632 350.1129 0031841 250.4518 115.7712  0.99245977116062
GORIZONT 27             
1 22245U 92082A   24152.66713015  .00000088  00000+0  00000+0 0  9993
2 22245  14.1687 349.5278 0011026  25.2740 331.9721  1.00164869119633
GORIZONT 28             
1 22880U 93069A   24152.66947976  .00000071  00000+0  00000+0 0  9991
2 22880  14.4266 353.4995 0034272 150.3370 215.7439  0.99650115111695
GORIZONT 29             
1 22907U 93072A   24152.63515130  .00000066  00000+0  00000+0 0  9999
2 22907  14.3217 352.8802 0008985 359.4431 181.8563  1.00115492111690
GORIZONT 30             
1 23108U 94030A   24152.76704227 -.00000037  00000+0  00000+0 0  9998
2 23108  14.3623 353.7765 0002268 201.7392 330.6283  1.00247302109973
GORIZONT 31             
1 23775U 96005A   24152.72397939 -.00000108  00000+0  00000+0 0  9995
2 23775  14.4686   0.1189 0020207 219.4566  13.9333  0.99881721103593
GORIZONT 32             
1 23880U 96034A   24152.77340956  .00000033  00000+0  00000+0 0  9992
2 23880  14.4338   0.5821 0006967   1.9971 177.2599  1.00194552102557
GORIZONT 33             
1 26372U 00029A   24152.79772359 -.00000017  00000+0  00000+0 0  9991
2 26372  13.4993  12.1546 0001697 164.2031  62.4379  1.00391606 87934
